{
  "links" : {
    "next" : "https://api.nasa.gov/neo/rest/v1/feed?start_date=2015-09-23&end_date=2015-09-23&detailed=true&api_key=t0TVs3DtDT2H8Oy2Zy8m2eVrNsAVKAexjcZXUckd",
    "prev" : "https://api.nasa.gov/neo/rest/v1/feed?start_date=2015-09-21&end_date=2015-09-21&detailed=true&api_key=t0TVs3DtDT2H8Oy2Zy8m2eVrNsAVKAexjcZXUckd",
    "self" : "https://api.nasa.gov/neo/rest/v1/feed?start_date=2015-09-22&end_date=2015-09-22&detailed=true&api_key=t0TVs3DtDT2H8Oy2Zy8m2eVrNsAVKAexjcZXUckd"
  },
  "element_count" : 12,
  "near_earth_objects" : {
    "2015-09-22" : [ {
      "links" : {
        "self" : "https://api.nasa.gov/neo/rest/v1/neo/3508133?api_key=t0TVs3DtDT2H8Oy2Zy8m2eVrNsAVKAexjcZXUckd"
      },
      "neo_reference_id" : "3508133",
      "name" : "(2010 CD55)",
      "nasa_jpl_url" : "http://ssd.jpl.nasa.gov/sbdb.cgi?sstr=3508133",
      "absolute_magnitude_h" : 23.3,
      "estimated_diameter" : {
        "kilometers" : {
          "estimated_diameter_min" : 0.058150704,
          "estimated_diameter_max" : 0.130028927
        },
        "meters" : {
          "estimated_diameter_min" : 58.1507039646,
          "estimated_diameter_max" : 130.0289270043
        },
        "miles" : {
          "estimated_diameter_min" : 0.0361331611,
          "estimated_diameter_max" : 0.0807962044
        },
        "feet" : {
          "estimated_diameter_min" : 190.7831555951,
          "estimated_diameter_max" : 426.6041048727
        }
      },
      "is_potentially_hazardous_asteroid" : false,
      "close_approach_data" : [ {
        "close_approach_date" : "2015-09-22",
        "epoch_date_close_approach" : 1442905200000,
        "relative_velocity" : {
          "kilometers_per_second" : "18.8100705193",
          "kilometers_per_hour" : "67716.2538696244",
          "miles_per_hour" : "42076.2467447119"
        },
        "miss_distance" : {
          "astronomical" : "0.4061540557",
          "lunar" : "157.993927002",
          "kilometers" : "60759784",
          "miles" : "37754380"
        },
        "orbiting_body" : "Earth"
      } ],
      "orbital_data" : {
        "orbit_id" : "18",
        "orbit_determination_date" : "2017-04-06 08:58:23",
        "orbit_uncertainty" : "2",
        "minimum_orbit_intersection" : ".012463",
        "jupiter_tisserand_invariant" : "5.946",
        "epoch_osculation" : "2458000.5",
        "eccentricity" : ".2012911336705421",
        "semi_major_axis" : "1.024000042047075",
        "inclination" : "5.930585319232098",
        "ascending_node_longitude" : "326.8314685044938",
        "orbital_period" : "378.4847526925599",
        "perihelion_distance" : ".8178779127047361",
        "perihelion_argument" : "279.3160873335891",
        "aphelion_distance" : "1.230122171389413",
        "perihelion_time" : "2457975.160339082012",
        "mean_anomaly" : "24.10210151288632",
        "mean_motion" : ".9511611694762909",
        "equinox" : "J2000"
      }
    }, {
      "links" : {
        "self" : "https://api.nasa.gov/neo/rest/v1/neo/3545514?api_key=t0TVs3DtDT2H8Oy2Zy8m2eVrNsAVKAexjcZXUckd"
      },
      "neo_reference_id" : "3545514",
      "name" : "(2010 QA5)",
      "nasa_jpl_url" : "http://ssd.jpl.nasa.gov/sbdb.cgi?sstr=3545514",
      "absolute_magnitude_h" : 22.5,
      "estimated_diameter" : {
        "kilometers" : {
          "estimated_diameter_min" : 0.0840533402,
          "estimated_diameter_max" : 0.1879489824
        },
        "meters" : {
          "estimated_diameter_min" : 84.0533402073,
          "estimated_diameter_max" : 187.9489824394
        },
        "miles" : {
          "estimated_diameter_min" : 0.0522283081,
          "estimated_diameter_max" : 0.1167860472
        },
        "feet" : {
          "estimated_diameter_min" : 275.7655606856,
          "estimated_diameter_max" : 616.6305395464
        }
      },
      "is_potentially_hazardous_asteroid" : false,
      "close_approach_data" : [ {
        "close_approach_date" : "2015-09-22",
        "epoch_date_close_approach" : 1442905200000,
        "relative_velocity" : {
          "kilometers_per_second" : "20.7604456269",
          "kilometers_per_hour" : "74737.6042568962",
          "miles_per_hour" : "46439.0408228475"
        },
        "miss_distance" : {
          "astronomical" : "0.1199732489",
          "lunar" : "46.669593811",
          "kilometers" : "17947742",
          "miles" : "11152210"
        },
        "orbiting_body" : "Earth"
      } ],
      "orbital_data" : {
        "orbit_id" : "9",
        "orbit_determination_date" : "2017-04-06 08:56:57",
        "orbit_uncertainty" : "6",
        "minimum_orbit_intersection" : ".0661996",
        "jupiter_tisserand_invariant" : "2.752",
        "epoch_osculation" : "2458000.5",
        "eccentricity" : ".6329020480887511",
        "semi_major_axis" : "2.916079858793686",
        "inclination" : "33.4444959554032",
        "ascending_node_longitude" : "174.1454991670091",
        "orbital_period" : "1818.852773926526",
        "perihelion_distance" : "1.070486943772806",
        "perihelion_argument" : "176.2033154031672",
        "aphelion_distance" : "4.761672773814566",
        "perihelion_time" : "2457285.058237295607",
        "mean_anomaly" : "141.6052130583198",
        "mean_motion" : ".1979269598730823",
        "equinox" : "J2000"
      }
    }, {
      "links" : {
        "self" : "https://api.nasa.gov/neo/rest/v1/neo/3691155?api_key=t0TVs3DtDT2H8Oy2Zy8m2eVrNsAVKAexjcZXUckd"
      },
      "neo_reference_id" : "3691155",
      "name" : "(2014 SS261)",
      "nasa_jpl_url" : "http://ssd.jpl.nasa.gov/sbdb.cgi?sstr=3691155",
      "absolute_magnitude_h" : 26.3,
      "estimated_diameter" : {
        "kilometers" : {
          "estimated_diameter_min" : 0.0146067964,
          "estimated_diameter_max" : 0.0326617897
        },
        "meters" : {
          "estimated_diameter_min" : 14.6067964271,
          "estimated_diameter_max" : 32.6617897446
        },
        "miles" : {
          "estimated_diameter_min" : 0.0090762397,
          "estimated_diameter_max" : 0.020295089
        },
        "feet" : {
          "estimated_diameter_min" : 47.92256199,
          "estimated_diameter_max" : 107.1581062656
        }
      },
      "is_potentially_hazardous_asteroid" : false,
      "close_approach_data" : [ {
        "close_approach_date" : "2015-09-22",
        "epoch_date_close_approach" : 1442905200000,
        "relative_velocity" : {
          "kilometers_per_second" : "15.2375755363",
          "kilometers_per_hour" : "54855.271930775",
          "miles_per_hour" : "34084.9327172085"
        },
        "miss_distance" : {
          "astronomical" : "0.3805832935",
          "lunar" : "148.0469055176",
          "kilometers" : "56934448",
          "miles" : "35377428"
        },
        "orbiting_body" : "Earth"
      } ],
      "orbital_data" : {
        "orbit_id" : "8",
        "orbit_determination_date" : "2017-04-06 08:38:23",
        "orbit_uncertainty" : "3",
        "minimum_orbit_intersection" : ".0157549",
        "jupiter_tisserand_invariant" : "6.273",
        "epoch_osculation" : "2458000.5",
        "eccentricity" : ".1204203551250059",
        "semi_major_axis" : ".9571282557880574",
        "inclination" : "10.88622249596574",
        "ascending_node_longitude" : "3.209010893532164",
        "orbital_period" : "342.0216777057162",
        "perihelion_distance" : ".841870531325882",
        "perihelion_argument" : "128.5390477131562",
        "aphelion_distance" : "1.072385980250233",
        "perihelion_time" : "2458064.534261522576",
        "mean_anomaly" : "292.5997863563426",
        "mean_motion" : "1.052564862013667",
        "equinox" : "J2000"
      }
    } ]
  }
}